OBJECT_NAME,OBJECT_ID,EPOCH,MEAN_MOTION,ECCENTRICITY,INCLINATION,RA_OF_ASC_NODE,ARG_OF_PERICENTER,MEAN_ANOMALY,EPHEMERIS_TYPE,CLASSIFICATION_TYPE,NORAD_CAT_ID,ELEMENT_SET_NO,REV_AT_EPOCH,BSTAR,MEAN_MOTION_DOT,MEAN_MOTION_DDOT
QIANFAN-181,2026-124S,2026-06-12T21:11:58.648416,14.19577709,.0004483,88.9980,2.5286,184.0890,176.0264,0,U,69398,999,120,-.10776787E+1,-.2096187E-1,0
QIANFAN-182,2026-124T,2026-06-13T00:30:24.239232,14.25574477,.00019597,88.9985,2.5121,167.6455,192.4786,0,U,69399,999,122,.37975801E-4,.104E-5,0
CZ-6A R/B,2026-124U,2026-06-13T06:04:15.915936,14.57302066,.01002121,89.0257,2.4263,75.1849,286.0438,0,U,69400,999,128,.61259179E-4,.317E-5,0
DTC TEST OBJECT A,2026-128A,2026-06-12T22:15:58.673952,15.55637490,.00081733,54.9939,324.7041,272.7064,87.3036,0,U,69472,999,56,.43944127E-3,.3033E-3,0
DTC TEST OBJECT B,2026-128B,2026-06-12T14:32:48.003360,15.56033484,.00082165,55.0028,326.1859,272.5140,87.4955,0,U,69473,999,50,.48994419E-3,.34393E-3,0
TJS-25,2026-129A,2026-06-11T11:34:53.014656,1.72502163,.7751889,16.5302,30.5351,199.9639,91.9387,0,U,69474,999,7,.19774E-2,.7407E-4,0
2026-131A,2026-131A,2026-06-13T10:00:35.699904,14.99040651,.0012133,97.6918,228.1419,285.4067,74.5815,0,U,69502,999,21,.57801E-4,.642E-5,0
2026-131B,2026-131B,2026-06-13T10:00:28.507104,14.99132825,.0012095,97.6950,228.1426,287.6967,72.2935,0,U,69503,999,21,.6798E-4,.768E-5,0
2026-131C,2026-131C,2026-06-12T03:34:13.358208,15.00135133,.00138378,97.6894,226.8864,298.9439,61.0397,0,U,69504,999,2,-.29353115E-4,-.427E-5,0
2026-131D,2026-131D,2026-06-13T09:58:23.387808,15.00977591,.0011034,97.6871,228.1350,315.3023,44.7311,0,U,69505,999,20,.12292E-3,.1509E-4,0
2026-131E,2026-131E,2026-06-13T09:58:13.362816,15.00908353,.0011327,97.6848,228.1411,323.9735,36.0724,0,U,69506,999,21,.13578E-3,.1671E-4,0
ZHUQUE-2E R/B,2026-128C,2026-06-13T04:01:32.863872,15.62592090,.00659147,54.5308,322.8705,333.1456,26.6170,0,U,69537,999,59,.4485544E-3,.45199E-3,0
