QIANFAN-181             
1 69398U 26124S   26163.88331769 -.02096187  00000+0 -10777+1 0  9999
2 69398  88.9980   2.5286 0004483 184.0890 176.0264 14.19577709  1200
QIANFAN-182             
1 69399U 26124T   26164.02111388  .00000104  00000+0  37976-4 0  9994
2 69399  88.9985   2.5121 0001959 167.6455 192.4786 14.25574477  1222
CZ-6A R/B               
1 69400U 26124U   26164.25296199  .00000317  00000+0  61259-4 0  9993
2 69400  89.0257   2.4263 0100212  75.1849 286.0438 14.57302066  1285
DTC TEST OBJECT A       
1 69472U 26128A   26163.92776243  .00030330  00000+0  43944-3 0  9990
2 69472  54.9939 324.7041 0008173 272.7064  87.3036 15.55637490   560
DTC TEST OBJECT B       
1 69473U 26128B   26163.60611115  .00034393  00000+0  48994-3 0  9995
2 69473  55.0028 326.1859 0008216 272.5140  87.4955 15.56033484   505
TJS-25                  
1 69474U 26129A   26162.48255804  .00007407  00000+0  19774-2 0  9990
2 69474  16.5302  30.5351 7751889 199.9639  91.9387  1.72502163    78
2026-131A               
1 69502U 26131A   26164.41707986  .00000642  00000+0  57801-4 0  9992
2 69502  97.6918 228.1419 0012133 285.4067  74.5815 14.99040651   215
2026-131B               
1 69503U 26131B   26164.41699661  .00000768  00000+0  67980-4 0  9991
2 69503  97.6950 228.1426 0012095 287.6967  72.2935 14.99132825   213
2026-131C               
1 69504U 26131C   26163.14876572 -.00000427  00000+0 -29353-4 0  9995
2 69504  97.6894 226.8864 0013837 298.9439  61.0397 15.00135133    21
2026-131D               
1 69505U 26131D   26164.41554847  .00001509  00000+0  12292-3 0  9998
2 69505  97.6871 228.1350 0011034 315.3023  44.7311 15.00977591   208
2026-131E               
1 69506U 26131E   26164.41543244  .00001671  00000+0  13578-3 0  9996
2 69506  97.6848 228.1411 0011327 323.9735  36.0724 15.00908353   214
ZHUQUE-2E R/B           
1 69537U 26128C   26164.16774148  .00045199  00000+0  44855-3 0  9992
2 69537  54.5308 322.8705 0065914 333.1456  26.6170 15.62592090   599
